NORAD_CAT_ID,OBJECT_NAME,OBJECT_TYPE,EPOCH,MEAN_MOTION,ECCENTRICITY,INCLINATION,RA_OF_ASC_NODE,ARG_OF_PERICENTER,MEAN_ANOMALY,BSTAR,MEAN_MOTION_DOT,MEAN_MOTION_DDOT,TLE_LINE0,TLE_LINE1,TLE_LINE2,SEMIMAJOR_AXIS,PERIOD,APOGEE,PERIGEE,DECAYED
55665.0,STARLINK-5474,PAYLOAD,2023-02-22 16:00:00,15.94818895,0.0037454,70.0,136.7799,163.1672,239.8253,-0.0026345,-0.01087092,0.00036289,0 STARLINK-5474,1 55665U 23021AP  23053.66667824 -.01087092  36289-3 -26345-2 0  9995,2 55665  70.0000 136.7799 0037454 163.1672 239.8253 15.94818895  1301,6666.956,90.292,313.791,263.851,0.0
55665.0,STARLINK-5474,PAYLOAD,2023-02-22 22:00:00,15.94321157,0.0034034,69.9995,136.0506,163.2852,234.3405,-0.0028844,-0.01143497,0.00039636,0 STARLINK-5474,1 55665U 23021AP  23053.91667824 -.01143497  39636-3 -28844-2 0  9990,2 55665  69.9995 136.0506 0034034 163.2852 234.3405 15.94321157  1301,6668.344,90.321,312.904,267.514,0.0
55665.0,STARLINK-5474,PAYLOAD,2023-02-23 08:00:01,15.93417388,0.0029436,69.9998,134.8373,165.2466,102.4082,-0.0029832,-0.01110508,0.00037206,0 STARLINK-5474,1 55665U 23021AP  23054.33334491 -.01110508  37206-3 -29832-2 0  9994,2 55665  69.9998 134.8373 0029436 165.2466 102.4082 15.93417388  1403,6670.865,90.372,312.366,273.093,0.0
55665.0,STARLINK-5474,PAYLOAD,2023-02-23 14:00:01,15.92886714,0.0027221,69.9998,134.1095,166.0667,94.9643,-0.0030828,-0.0110885,0.00036905,0 STARLINK-5474,1 55665U 23021AP  23054.58334491 -.01108850  36905-3 -30828-2 0  9990,2 55665  69.9998 134.1095 0027221 166.0667  94.9643 15.92886714  1308,6672.346,90.402,312.374,276.049,0.0
55665.0,STARLINK-5474,PAYLOAD,2023-02-23 16:00:00,15.92705712,0.0026348,70.0,133.8674,166.8093,211.9097,-0.0030981,-0.01101314,0.00036377,0 STARLINK-5474,1 55665U 23021AP  23054.66667824 -.01101314  36377-3 -30981-2 0  9999,2 55665  70.0000 133.8674 0026348 166.8093 211.9097 15.92705712  1452,6672.852,90.412,312.298,277.135,0.0
55665.0,STARLINK-5474,PAYLOAD,2023-02-23 22:00:00,15.92214162,0.0023354,69.9995,133.1404,168.0331,203.4093,-0.0033985,-0.01168331,0.00040369,0 STARLINK-5474,1 55665U 23021AP  23054.91667824 -.01168331  40369-3 -33985-2 0  9992,2 55665  69.9995 133.1404 0023354 168.0331 203.4093 15.92214162  1309,6674.225,90.44,311.677,280.503,0.0
55665.0,STARLINK-5474,PAYLOAD,2023-02-24 02:00:01,15.91813528,0.0022165,69.9998,132.6567,169.29,77.0686,-0.0032283,-0.01084782,0.0003506,0 STARLINK-5474,1 55665U 23021AP  23055.08334491 -.01084782  35060-3 -32283-2 0  9991,2 55665  69.9998 132.6567 0022165 169.2900  77.0686 15.91813528  1527,6675.345,90.463,312.006,282.414,0.0
55665.0,STARLINK-5474,PAYLOAD,2023-02-24 08:00:01,15.91288161,0.0019438,70.0,131.931,172.438,65.8643,-0.0033592,-0.01092586,0.00035342,0 STARLINK-5474,1 55665U 23021AP  23055.33334491 -.01092586  35342-3 -33592-2 0  9997,2 55665  70.0000 131.9310 0019438 172.4380  65.8643 15.91288161  1560,6676.814,90.493,311.658,285.701,0.0
55665.0,STARLINK-5474,PAYLOAD,2023-02-24 12:00:00,15.90919955,0.0017976,70.0,131.4482,174.2634,298.41,-0.00334,-0.01063501,0.00033501,0 STARLINK-5474,1 55665U 23021AP  23055.50001157 -.01063501  33501-3 -33400-2 0  9994,2 55665  70.0000 131.4482 0017976 174.2634 298.4100 15.90919955  1307,6677.844,90.514,311.713,287.705,0.0
55665.0,STARLINK-5474,PAYLOAD,2023-02-24 18:00:00,15.90394269,0.0015771,69.9997,130.7231,178.2007,285.6227,-0.0034695,-0.01071729,0.00033806,0 STARLINK-5474,1 55665U 23021AP  23055.75001157 -.01071729  33806-3 -34695-2 0  9997,2 55665  69.9997 130.7231 0015771 178.2007 285.6227 15.90394269  1631,6679.316,90.544,311.715,290.647,0.0
55665.0,STARLINK-5474,PAYLOAD,2023-02-24 22:00:00,15.90085791,0.0013925,69.9996,130.2397,182.3893,155.2526,-0.003817,-0.01157123,0.00038833,0 STARLINK-5474,1 55665U 23021AP  23055.91667824 -.01157123  38833-3 -38170-2 0  9994,2 55665  69.9996 130.2397 0013925 182.3893 155.2526 15.90085791  1301,6680.18,90.561,311.347,292.742,0.0
55665.0,STARLINK-5474,PAYLOAD,2023-02-25 02:00:01,15.896869,0.0012849,70.0001,129.7573,186.1118,25.1723,-0.0036061,-0.01070674,0.00033513,0 STARLINK-5474,1 55665U 23021AP  23056.08334491 -.01070674  33513-3 -36061-2 0  9996,2 55665  70.0001 129.7573 0012849 186.1118  25.1723 15.89686900  1688,6681.297,90.584,311.747,294.577,0.0
55665.0,STARLINK-5474,PAYLOAD,2023-02-25 08:00:01,15.89157015,0.0010928,69.9999,129.0339,194.3424,6.9811,-0.0037143,-0.0107164,0.00033397,0 STARLINK-5474,1 55665U 23021AP  23056.33334491 -.01071640  33397-3 -37143-2 0  9990,2 55665  69.9999 129.0339 0010928 194.3424   6.9811 15.89157015  1721,6682.782,90.614,311.95,297.344,0.0
55665.0,STARLINK-5474,PAYLOAD,2023-02-25 14:00:01,15.88639139,0.000954,69.9996,128.3112,205.647,345.2325,-0.0038818,-0.01089882,0.00034284,0 STARLINK-5474,1 55665U 23021AP  23056.58334491 -.01089882  34284-3 -38818-2 0  9990,2 55665  69.9996 128.3112 0009540 205.6470 345.2325 15.88639139  1768,6684.234,90.644,312.476,299.723,0.0
55665.0,STARLINK-5474,PAYLOAD,2023-02-25 22:00:00,15.87968542,0.0008326,69.9995,127.3477,226.076,70.1317,-0.0042801,-0.01040648,0.0,0 STARLINK-5474,1 55665U 23021AP  23056.91667824 -.01040648  00000-0 -42801-2 0  9996,2 55665  69.9995 127.3477 0008326 226.0760  70.1317 15.87968542  1813,6686.116,90.682,313.548,302.414,0.0
55665.0,STARLINK-5474,PAYLOAD,2023-02-26 06:00:00,15.87256503,0.0008676,69.9993,126.386,247.5065,153.1969,-0.0043869,-0.01030979,0.0,0 STARLINK-5474,1 55665U 23021AP  23057.25001157 -.01030979  00000-0 -43869-2 0  9996,2 55665  69.9993 126.3860 0008676 247.5065 153.1969 15.87256503  1878,6688.116,90.723,315.783,304.178,0.0
55665.0,STARLINK-5474,PAYLOAD,2023-02-26 14:00:01,15.86504843,0.0009129,69.9999,125.4257,262.1005,242.2686,-0.0042274,-0.00964943,0.0,0 STARLINK-5474,1 55665U 23021AP  23057.58334491 -.00964943  00000-0 -42274-2 0  9997,2 55665  69.9999 125.4257 0009129 262.1005 242.2686 15.86504843  1301,6690.228,90.766,318.2,305.985,0.0
55665.0,STARLINK-5474,PAYLOAD,2023-02-26 22:00:00,15.85805855,0.0007943,69.9994,124.4653,269.5608,337.6045,-0.0044333,-0.00975424,0.0,0 STARLINK-5474,1 55665U 23021AP  23057.91667824 -.00975424  00000-0 -44333-2 0  9997,2 55665  69.9994 124.4653 0007943 269.5608 337.6045 15.85805855  1974,6692.194,90.806,319.374,308.743,0.0
55665.0,STARLINK-5474,PAYLOAD,2023-02-27 14:00:01,15.8440563,0.0006841,70.0,122.5489,272.3332,177.8835,-0.0048663,-0.00996891,0.0,0 STARLINK-5474,1 55665U 23021AP  23058.58334491 -.00996891  00000-0 -48663-2 0  9993,2 55665  70.0000 122.5489 0006841 272.3332 177.8835 15.84405630  2083,6696.136,90.886,322.582,313.42,0.0
55665.0,STARLINK-5474,PAYLOAD,2023-02-27 22:00:01,15.83663364,0.000344,70.0003,121.5914,275.658,274.8963,-0.0047537,-0.00943154,0.0,0 STARLINK-5474,1 55665U 23021AP  23058.91668981 -.00943154  00000-0 -47537-2 0  9997,2 55665  70.0003 121.5914 0003440 275.6580 274.8963 15.83663364  1304,6698.228,90.928,322.397,317.789,0.0
55665.0,STARLINK-5474,PAYLOAD,2023-02-28 14:00:01,15.82273003,0.0003681,70.0001,119.6808,267.9872,120.462,-0.0052612,-0.00973991,0.0,0 STARLINK-5474,1 55665U 23021AP  23059.58334491 -.00973991  00000-0 -52612-2 0  9999,2 55665  70.0001 119.6808 0003681 267.9872 120.4620 15.82273003  1309,6702.151,91.008,326.483,321.549,0.0
55665.0,STARLINK-5474,PAYLOAD,2023-02-28 16:00:00,15.82096332,0.0003525,69.9999,119.4422,268.4827,234.4746,-0.0053038,-0.00973699,0.0,0 STARLINK-5474,1 55665U 23021AP  23059.66667824 -.00973699  00000-0 -53038-2 0  9995,2 55665  69.9999 119.4422 0003525 268.4827 234.4746 15.82096332  2253,6702.65,91.018,326.878,322.153,0.0
55665.0,STARLINK-5474,PAYLOAD,2023-02-28 22:00:00,15.81576823,0.000363,69.9999,118.7263,279.762,206.3977,-0.0055298,-0.0098907,0.0,0 STARLINK-5474,1 55665U 23021AP  23059.91667824 -.00989070  00000-0 -55298-2 0  9993,2 55665  69.9999 118.7263 0003630 279.7620 206.3977 15.81576823  1307,6704.118,91.048,328.417,323.549,0.0
55665.0,STARLINK-5474,PAYLOAD,2023-03-01 14:00:01,15.80167944,0.0003596,69.9997,116.8218,271.3404,47.7026,-0.0059293,-0.0099299,0.0,0 STARLINK-5474,1 55665U 23021AP  23060.58334491 -.00992990  00000-0 -59293-2 0  9993,2 55665  69.9997 116.8218 0003596 271.3404  47.7026 15.80167944  2394,6708.102,91.13,332.38,327.555,0.0
55665.0,STARLINK-5474,PAYLOAD,2023-03-01 22:00:00,15.7946416,0.0003696,69.9997,115.8705,280.5877,133.6266,-0.0061536,-0.00997357,0.0,0 STARLINK-5474,1 55665U 23021AP  23060.91667824 -.00997357  00000-0 -61536-2 0  9994,2 55665  69.9997 115.8705 0003696 280.5877 133.6266 15.79464160  1300,6710.095,91.17,334.44,329.48,0.0
55665.0,STARLINK-5474,PAYLOAD,2023-03-02 20:00:01,15.77506542,0.0003446,69.9999,113.2607,270.5637,311.0105,-0.0065817,-0.00978354,0.0,0 STARLINK-5474,1 55665U 23021AP  23061.83334491 -.00978354  00000-0 -65817-2 0  9999,2 55665  69.9999 113.2607 0003446 270.5637 311.0105 15.77506542  1304,6715.645,91.283,339.824,335.196,0.0
55665.0,STARLINK-5474,PAYLOAD,2023-03-03 12:00:00,15.76090708,0.0003697,70.0003,111.3673,281.7511,122.9639,-0.0069661,-0.00972997,0.0,0 STARLINK-5474,1 55665U 23021AP  23062.50001157 -.00972997  00000-0 -69661-2 0  9992,2 55665  70.0003 111.3673 0003697 281.7511 122.9639 15.76090708  2705,6719.666,91.365,344.015,339.047,0.0
55665.0,STARLINK-5474,PAYLOAD,2023-03-03 14:00:01,15.75942282,0.0003411,69.9997,111.131,273.6669,243.6883,-0.0073044,-0.01025808,0.0,0 STARLINK-5474,1 55665U 23021AP  23062.58334491 -.01025808  00000-0 -73044-2 0  9991,2 55665  69.9997 111.1310 0003411 273.6669 243.6883 15.75942282  1307,6720.088,91.374,344.245,339.661,0.0
55665.0,STARLINK-5474,PAYLOAD,2023-03-03 22:00:00,15.75235743,0.0003583,69.9995,110.1849,279.7006,327.7432,-0.0075537,-0.01028215,0.0,0 STARLINK-5474,1 55665U 23021AP  23062.91667824 -.01028215  00000-0 -75537-2 0  9991,2 55665  69.9995 110.1849 0003583 279.7006 327.7432 15.75235743  1304,6722.097,91.415,346.371,341.554,0.0
